NORAD_CAT_ID,OBJECT_NAME,OBJECT_TYPE,EPOCH,MEAN_MOTION,ECCENTRICITY,INCLINATION,RA_OF_ASC_NODE,ARG_OF_PERICENTER,MEAN_ANOMALY,BSTAR,MEAN_MOTION_DOT,MEAN_MOTION_DDOT,TLE_LINE0,TLE_LINE1,TLE_LINE2,SEMIMAJOR_AXIS,PERIOD,APOGEE,PERIGEE,DECAYED
56810.0,STARLINK-6031,PAYLOAD,2024-05-02 15:01:17,14.98326662,0.0002925,70.0004,249.0002,270.5935,89.4889,-8.8195e-05,-1.145e-05,0.0,0 STARLINK-6031,1 56810U 23078AV  24123.62589368 -.00001145  00000-0 -88195-4 0  9997,2 56810  70.0004 249.0002 0002925 270.5935  89.4889 14.98326662 51413,6950.203,96.107,574.101,570.035,0.0
56810.0,STARLINK-6031,PAYLOAD,2024-05-03 02:14:12,14.98338283,0.0002975,70.0002,247.8223,271.0688,89.013,-2.587e-05,-4.02e-06,0.0,0 STARLINK-6031,1 56810U 23078AV  24124.09320344 -.00000402  00000-0 -25870-4 0  9992,2 56810  70.0002 247.8223 0002975 271.0688  89.0130 14.98338283 51741,6950.167,96.106,574.1,569.965,0.0
56810.0,STARLINK-6031,PAYLOAD,2024-05-03 15:03:16,14.98342581,0.0003121,69.9998,246.475,269.9221,90.158,0.00010322,1.139e-05,0.0,0 STARLINK-6031,1 56810U 23078AV  24124.62727372  .00001139  00000-0  10322-3 0  9994,2 56810  69.9998 246.4750 0003121 269.9221  90.1580 14.98342581 51563,6950.154,96.106,574.188,569.85,0.0
56810.0,STARLINK-6031,PAYLOAD,2024-05-03 18:15:32,14.98345648,0.0003165,69.9997,246.1384,269.1974,90.8822,0.00011464,1.276e-05,0.0,0 STARLINK-6031,1 56810U 23078AV  24124.76079029  .00001276  00000-0  11464-3 0  9998,2 56810  69.9997 246.1384 0003165 269.1974  90.8822 14.98345648 51841,6950.145,96.106,574.209,569.81,0.0
56810.0,STARLINK-6031,PAYLOAD,2024-05-04 11:53:03,14.98315787,0.0003251,69.9997,244.287,276.2758,83.8031,-7.2438e-05,-9.57e-06,0.0,0 STARLINK-6031,1 56810U 23078AV  24125.49517626 -.00000957  00000-0 -72438-4 0  9995,2 56810  69.9997 244.2870 0003251 276.2758  83.8031 14.98315787 51952,6950.237,96.108,574.361,569.842,0.0
56810.0,STARLINK-6031,PAYLOAD,2024-05-05 00:42:07,14.98327099,0.000313,69.9998,242.9401,271.0871,88.9929,-9.6541e-05,-1.245e-05,0.0,0 STARLINK-6031,1 56810U 23078AV  24126.02925213 -.00001245  00000-0 -96541-4 0  9992,2 56810  69.9998 242.9401 0003130 271.0871  88.9929 14.98327099 52034,6950.202,96.107,574.242,569.891,0.0
56810.0,STARLINK-6031,PAYLOAD,2024-05-05 13:31:11,14.98333915,0.0003076,70.0,241.5934,270.4286,89.6521,-5.8636e-05,-7.93e-06,0.0,0 STARLINK-6031,1 56810U 23078AV  24126.56332701 -.00000793  00000-0 -58636-4 0  9995,2 56810  70.0000 241.5934 0003076 270.4286  89.6521 14.98333915 51858,6950.181,96.107,574.184,569.908,0.0
56810.0,STARLINK-6031,PAYLOAD,2024-05-05 16:43:27,14.98337829,0.0003144,69.9997,241.2568,271.6899,88.39,-3.4278e-05,-5.02e-06,0.0,0 STARLINK-6031,1 56810U 23078AV  24126.69684356 -.00000502  00000-0 -34278-4 0  9999,2 56810  69.9997 241.2568 0003144 271.6899  88.3900 14.98337829 52136,6950.169,96.106,574.219,569.849,0.0
56810.0,STARLINK-6031,PAYLOAD,2024-05-06 11:57:04,14.98326397,0.0002989,69.9999,239.2374,269.0119,91.0698,0.00017492,1.995e-05,0.0,0 STARLINK-6031,1 56810U 23078AV  24127.49796444  .00001995  00000-0  17492-3 0  9993,2 56810  69.9999 239.2374 0002989 269.0119  91.0698 14.98326397 51998,6950.204,96.107,574.146,569.992,0.0
56810.0,STARLINK-6031,PAYLOAD,2024-05-06 16:45:27,14.9833306,0.0002915,70.0001,238.7325,268.8351,91.2474,0.00023584,2.722e-05,0.0,0 STARLINK-6031,1 56810U 23078AV  24127.69823845  .00002722  00000-0  23584-3 0  9999,2 56810  70.0001 238.7325 0002915 268.8351  91.2474 14.98333060 52281,6950.183,96.107,574.074,570.022,0.0
56810.0,STARLINK-6031,PAYLOAD,2024-05-07 11:59:05,14.98326466,0.0002608,70.0019,236.7133,274.0245,86.0616,-1.9998e-05,-3.31e-06,0.0,0 STARLINK-6031,1 56810U 23078AV  24128.49937026 -.00000331  00000-0 -19998-4 0  9996,2 56810  70.0019 236.7133 0002608 274.0245  86.0616 14.98326466 52401,6950.204,96.107,573.881,570.256,0.0
56810.0,STARLINK-6031,PAYLOAD,2024-05-07 13:35:13,14.98328402,0.0002672,70.0006,236.5446,270.7407,89.3446,-5.5591e-05,-7.56e-06,0.0,0 STARLINK-6031,1 56810U 23078AV  24128.56612948 -.00000756  00000-0 -55591-4 0  9997,2 56810  70.0006 236.5446 0002672 270.7407  89.3446 14.98328402 52157,6950.198,96.107,573.92,570.206,0.0
56810.0,STARLINK-6031,PAYLOAD,2024-05-07 16:47:29,14.98329352,0.0002954,70.0003,236.2082,272.0844,87.9977,-4.5947e-05,-6.41e-06,0.0,0 STARLINK-6031,1 56810U 23078AV  24128.69964858 -.00000641  00000-0 -45947-4 0  9998,2 56810  70.0003 236.2082 0002954 272.0844  87.9977 14.98329352 52170,6950.195,96.107,574.113,570.007,0.0
56810.0,STARLINK-6031,PAYLOAD,2024-05-08 12:01:05,14.9833461,0.0002934,70.0004,234.1884,272.1535,87.9288,-2.7153e-05,-4.17e-06,0.0,0 STARLINK-6031,1 56810U 23078AV  24129.50076338 -.00000417  00000-0 -27153-4 0  9996,2 56810  70.0004 234.1884 0002934 272.1535  87.9288 14.98334610 52554,6950.179,96.107,574.083,570.004,0.0
56810.0,STARLINK-6031,PAYLOAD,2024-05-08 13:37:13,14.98340253,0.0002922,70.0004,234.0195,269.3611,90.7213,-1.2524e-05,-2.42e-06,0.0,0 STARLINK-6031,1 56810U 23078AV  24129.56751889 -.00000242  00000-0 -12524-4 0  9995,2 56810  70.0004 234.0195 0002922 269.3611  90.7213 14.98340253 52301,6950.161,96.106,574.057,569.995,0.0
56810.0,STARLINK-6031,PAYLOAD,2024-05-08 16:49:29,14.98341533,0.0002914,70.0004,233.6828,269.4925,90.59,6.3243e-06,-1.8e-07,0.0,0 STARLINK-6031,1 56810U 23078AV  24129.70103680 -.00000018  00000-0  63243-5 0  9996,2 56810  70.0004 233.6828 0002914 269.4925  90.5900 14.98341533 52582,6950.157,96.106,574.048,569.997,0.0
56810.0,STARLINK-6031,PAYLOAD,2024-05-09 12:03:06,14.98325158,0.0002772,70.0017,231.6647,265.7072,94.3771,7.3604e-05,7.85e-06,0.0,0 STARLINK-6031,1 56810U 23078AV  24130.50216424  .00000785  00000-0  73604-4 0  9998,2 56810  70.0017 231.6647 0002772 265.7072  94.3771 14.98325158 52704,6950.208,96.107,573.999,570.146,0.0
56810.0,STARLINK-6031,PAYLOAD,2024-05-09 13:39:14,14.98327359,0.0002577,70.0016,231.4968,258.3875,101.6995,6.8847e-05,7.29e-06,0.0,0 STARLINK-6031,1 56810U 23078AV  24130.56892299  .00000729  00000-0  68847-4 0  9995,2 56810  70.0016 231.4968 0002577 258.3875 101.6995 14.98327359 52456,6950.201,96.107,573.857,570.275,0.0
56810.0,STARLINK-6031,PAYLOAD,2024-05-09 16:51:30,14.98332866,0.0002761,70.0017,231.1616,264.7113,95.3731,0.00010255,1.131e-05,0.0,0 STARLINK-6031,1 56810U 23078AV  24130.70243839  .00001131  00000-0  10255-3 0  9998,2 56810  70.0017 231.1616 0002761 264.7113  95.3731 14.98332866 52732,6950.184,96.107,573.968,570.13,0.0
56810.0,STARLINK-6031,PAYLOAD,2024-05-10 13:41:14,14.98340972,0.0002778,70.0013,228.9723,267.7789,92.3052,7.5734e-05,8.11e-06,0.0,0 STARLINK-6031,1 56810U 23078AV  24131.57031095  .00000811  00000-0  75734-4 0  9991,2 56810  70.0013 228.9723 0002778 267.7789  92.3052 14.98340972 52607,6950.159,96.106,573.955,570.093,0.0
56810.0,STARLINK-6031,PAYLOAD,2024-05-10 15:17:22,14.98344516,0.0002758,70.0015,228.8043,268.1206,91.9637,0.00011586,1.29e-05,0.0,0 STARLINK-6031,1 56810U 23078AV  24131.63706695  .00001290  00000-0  11586-3 0  9999,2 56810  70.0015 228.8043 0002758 268.1206  91.9637 14.98344516 52871,6950.148,96.106,573.93,570.096,0.0
56810.0,STARLINK-6031,PAYLOAD,2024-05-11 12:07:04,14.98379394,0.0003006,70.0002,226.6148,274.4489,85.6326,0.00044014,5.169e-05,0.0,0 STARLINK-6031,1 56810U 23078AV  24132.50490834  .00005169  00000-0  44014-3 0  9992,2 56810  70.0002 226.6148 0003006 274.4489  85.6326 14.98379394 53002,6950.04,96.104,573.994,569.816,0.0
56810.0,STARLINK-6031,PAYLOAD,2024-05-11 15:19:21,14.98352061,0.0002345,70.0007,226.2757,273.1146,86.9744,0.00019414,2.226e-05,0.0,0 STARLINK-6031,1 56810U 23078AV  24132.63844696  .00002226  00000-0  19414-3 0  9992,2 56810  70.0007 226.2757 0002345 273.1146  86.9744 14.98352061 53022,6950.125,96.106,573.619,570.36,0.0
56810.0,STARLINK-6031,PAYLOAD,2024-05-11 23:20:05,14.98309397,0.0002854,70.0007,225.4357,267.825,92.2582,-0.00045098,-5.467e-05,0.0,0 STARLINK-6031,1 56810U 23078AV  24132.97228887 -.00005467  00000-0 -45098-3 0  9996,2 56810  70.0007 225.4357 0002854 267.8250  92.2582 14.98309397 53079,6950.257,96.108,574.105,570.138,0.0
56810.0,STARLINK-6031,PAYLOAD,2024-05-12 12:09:15,14.98262667,0.0002784,70.0012,224.0901,256.2964,103.7885,-0.00084298,-0.00010119,0.0,0 STARLINK-6031,1 56810U 23078AV  24133.50642424 -.00010119  00000-0 -84298-3 0  9998,2 56810  70.0012 224.0901 0002784 256.2964 103.7885 14.98262667 53152,6950.401,96.111,574.201,570.331,0.0
56810.0,STARLINK-6031,PAYLOAD,2024-05-12 13:45:23,14.98261798,0.00028,70.0011,223.9218,256.5676,103.5171,-0.00084071,-0.00010092,0.0,0 STARLINK-6031,1 56810U 23078AV  24133.57318726 -.00010092  00000-0 -84071-3 0  9999,2 56810  70.0011 223.9218 0002800 256.5676 103.5171 14.98261798 52904,6950.404,96.111,574.215,570.323,0.0
56810.0,STARLINK-6031,PAYLOAD,2024-05-12 15:21:31,14.9826029,0.0002814,70.001,223.7534,256.5531,103.5314,-0.00084329,-0.00010122,0.0,0 STARLINK-6031,1 56810U 23078AV  24133.63995096 -.00010122  00000-0 -84329-3 0  9997,2 56810  70.0010 223.7534 0002814 256.5531 103.5314 14.98260290 52913,6950.408,96.111,574.229,570.318,0.0
56810.0,STARLINK-6031,PAYLOAD,2024-05-12 23:22:08,14.98310884,0.0002839,70.0018,222.9108,265.1663,94.9172,-0.00027805,-3.407e-05,0.0,0 STARLINK-6031,1 56810U 23078AV  24133.97371284 -.00003407  00000-0 -27805-3 0  9995,2 56810  70.0018 222.9108 0002839 265.1663  94.9172 14.98310884 53223,6950.252,96.108,574.09,570.144,0.0
56810.0,STARLINK-6031,PAYLOAD,2024-05-13 12:11:11,14.98346933,0.000314,70.0,221.5644,267.8237,92.2562,-0.0002987,-3.657e-05,0.0,0 STARLINK-6031,1 56810U 23078AV  24134.50777581 -.00003657  00000-0 -29870-3 0  9996,2 56810  70.0000 221.5644 0003140 267.8237  92.2562 14.98346933 53303,6950.141,96.106,574.188,569.823,0.0
56810.0,STARLINK-6031,PAYLOAD,2024-05-13 15:23:27,14.98346627,0.0003027,70.0001,221.2278,267.4784,92.6028,-0.00025929,-3.187e-05,0.0,0 STARLINK-6031,1 56810U 23078AV  24134.64129467 -.00003187  00000-0 -25929-3 0  9994,2 56810  70.0001 221.2278 0003027 267.4784  92.6028 14.98346627 53065,6950.141,96.106,574.11,569.903,0.0
